[{"OBJECT_NAME":"PATHFINDER 1","OBJECT_ID":"2016-059E","EPOCH":"2026-03-09T22:26:32.347968","MEAN_MOTION":14.67518797,"ECCENTRICITY":0.00289613,"INCLINATION":97.8179,"RA_OF_ASC_NODE":72.6978,"ARG_OF_PERICENTER":160.0111,"MEAN_ANOMALY":200.2236,"EPHEMERIS_TYPE":0,"CLASSIFICATION_TYPE":"U","NORAD_CAT_ID":41787,"ELEMENT_SET_NO":999,"REV_AT_EPOCH":50515,"BSTAR":0.00018125608,"MEAN_MOTION_DOT":9.87e-6,"MEAN_MOTION_DDOT":0},{"OBJECT_NAME":"IRIDIUM 33 DEB","OBJECT_ID":"1997-051HN","EPOCH":"2026-03-09T05:58:38.625024","MEAN_MOTION":14.64663266,"ECCENTRICITY":0.00043092,"INCLINATION":86.3831,"RA_OF_ASC_NODE":352.4324,"ARG_OF_PERICENTER":11.063,"MEAN_ANOMALY":349.0676,"EPHEMERIS_TYPE":0,"CLASSIFICATION_TYPE":"U","NORAD_CAT_ID":34521,"ELEMENT_SET_NO":999,"REV_AT_EPOCH":89738,"BSTAR":0.0015796578,"MEAN_MOTION_DOT":8.424e-5,"MEAN_MOTION_DDOT":0}]
